      2.10          N: GNSS NAV DATA                        RINEX VERSION / TYPE
fic2rin                                 04/26/2022 00:17:37 PGM / RUN BY / DATE
                                                            END OF HEADER
8  22  4 25  1 59 44.0 -.653266906738D-04 -.147792889038D-11  .000000000000D+00
     .260000000000D+02  .359375000000D+02  .423624788530D-08  .401412692838D+00
     .192411243916D-05  .744568952359D-02  .943243503571D-05  .515375615311D+04
     .935840000000D+05  .139698386192D-06  .204039415815D+01  .447034835815D-07
     .963778716589D+00  .199593750000D+03  .156745934629D+00 -.800247619240D-08
    -.173578658819D-09  .100000000000D+01  .220700000000D+04  .000000000000D+00
     .240000000000D+01  .000000000000D+00  .512227416039D-08  .260000000000D+02
     .864000000000D+05  .400000000000D+01
6  22  4 25  1 59 44.0  .279027037323D-03  .139834810398D-10  .000000000000D+00
     .140000000000D+02  .560000000000D+02  .411159983607D-08 -.154985291654D+01
     .288151204586D-05  .261582457460D-02  .654533505440D-05  .515371253586D+04
     .935840000000D+05 -.130385160446D-06  .311319567280D+01 -.484287738800D-07
     .987154769427D+00  .271343750000D+03 -.870438499817D+00 -.797854662421D-08
     .337871216549D-09  .100000000000D+01  .220700000000D+04  .000000000000D+00
     .240000000000D+01  .000000000000D+00  .372529029846D-08  .140000000000D+02
     .864000000000D+05  .400000000000D+01
18 22  4 25 22  0  0.0  .186315737665D-03 -.966338120634D-11  .000000000000D+00
     .144000000000D+03  .734687500000D+02  .442982737723D-08  .273487524717D+01
     .384636223316D-05  .224030832760D-02  .736303627491D-05  .515360885048D+04
     .165600000000D+06 -.540167093277D-07  .312767399602D+01  .558793544769D-08
     .971625257646D+00  .245031250000D+03  .304445289332D+01 -.808140805165D-08
     .357157734196D-09  .100000000000D+01  .220700000000D+04  .000000000000D+00
     .240000000000D+01  .000000000000D+00 -.838190317154D-08  .400000000000D+03
     .158400000000D+06  .400000000000D+01
28 22  4 25 22  0  0.0  .367293599993D-03 -.477484718431D-11  .000000000000D+00
     .100000000000D+03  .415625000000D+01  .470805325217D-08 -.119360163126D+01
     .409781932831D-06  .166186243296D-01  .551715493202D-05  .515368120384D+04
     .165600000000D+06 -.376254320145D-06  .110651709358D+01  .987201929092D-07
     .968486347469D+00  .284093750000D+03 -.128038826030D+01 -.842820821156D-08
    -.403588239642D-10  .100000000000D+01  .220700000000D+04  .000000000000D+00
     .340000000000D+01  .630000000000D+02 -.111758708954D-07  .100000000000D+03
     .158400000000D+06  .400000000000D+01
2  22  4 26  0  0  0.0 -.653240364045D-03 -.113686837722D-12  .000000000000D+00
     .740000000000D+02  .643125000000D+02  .432339437244D-08 -.265858148875D+01
     .346265733242D-05  .204604767496D-01  .819377601147D-05  .515365626335D+04
     .172800000000D+06  .184401869774D-06  .303017598759D+01  .270083546638D-06
     .966007160681D+00  .219812500000D+03 -.142217718151D+01 -.769996359153D-08
     .383944564261D-09  .100000000000D+01  .220700000000D+04  .000000000000D+00
     .240000000000D+01  .000000000000D+00 -.176951289177D-07  .740000000000D+02
     .165600000000D+06  .400000000000D+01
1  22  4 26  0  0  0.0  .376709271222D-03 -.852651282912D-11  .000000000000D+00
     .460000000000D+02  .665000000000D+02  .396230790317D-08 -.280623362324D+01
     .323727726936D-05  .117951742141D-01  .847689807415D-05  .515366906929D+04
     .172800000000D+06  .135973095894D-06  .312084157172D+01 -.290572643280D-06
     .987827628357D+00  .228312500000D+03  .896837936191D+00 -.772889336800D-08
     .403231081907D-09  .100000000000D+01  .220700000000D+04  .000000000000D+00
     .240000000000D+01  .000000000000D+00  .512227416039D-08  .460000000000D+02
     .165600000000D+06  .400000000000D+01
5  22  4 26  0  0  0.0 -.796238891780D-04 -.136424205266D-11  .000000000000D+00
     .720000000000D+02 -.261562500000D+02  .496413534759D-08 -.146452822542D+00
    -.123307108879D-05  .592132844031D-02  .324100255966D-05  .515370629120D+04
     .172800000000D+06 -.428408384323D-07 -.216967634839D+01 -.242143869400D-07
     .960245500251D+00  .313031250000D+03  .101464546515D+01 -.857392856711D-08
    -.103932900651D-09  .100000000000D+01  .220700000000D+04  .000000000000D+00
     .240000000000D+01  .000000000000D+00 -.111758708954D-07  .720000000000D+02
     .165600000000D+06  .400000000000D+01
3  22  4 26  0  0  0.0 -.221102498472D-03 -.145519152284D-10  .000000000000D+00
     .520000000000D+02 -.290312500000D+02  .459376277723D-08  .235844623711D+01
    -.170432031155D-05  .406393152662D-02  .331923365593D-05  .515363651848D+04
     .172800000000D+06 -.409781932831D-07 -.212833982647D+01 -.242143869400D-07
     .973213027006D+00  .320531250000D+03  .947277037228D+00 -.825605818368D-08
    -.875036448780D-10  .100000000000D+01  .220700000000D+04  .000000000000D+00
     .240000000000D+01  .000000000000D+00  .186264514923D-08  .520000000000D+02
     .165600000000D+06  .400000000000D+01
7  22  4 26  0  0  0.0  .321122352034D-03  .795807864051D-12  .000000000000D+00
     .290000000000D+02  .426562500000D+02  .450090176634D-08  .280612949419D+01
     .210665166378D-05  .159556795843D-01  .100657343864D-04  .515367202568D+04
     .172800000000D+06  .391155481339D-07 -.284771121289D-01 -.217929482460D-06
     .951278154748D+00  .177843750000D+03 -.227537159006D+01 -.774139388870D-08
     .358586365133D-09  .100000000000D+01  .220700000000D+04  .000000000000D+00
     .240000000000D+01  .000000000000D+00 -.111758708954D-07  .290000000000D+02
     .165600000000D+06  .400000000000D+01
6  22  4 26  0  0  0.0  .280136242509D-03  .139834810398D-10  .000000000000D+00
     .970000000000D+02  .586875000000D+02  .400802409315D-08 -.256333986030D+01
     .314600765705D-05  .261281651910D-02  .820681452751D-05  .515371515846D+04
     .172800000000D+06 -.856816768646D-07  .311257017438D+01  .391155481339D-07
     .987178296076D+00  .235968750000D+03 -.869309788299D+00 -.776818071876D-08
     .355371945525D-09  .100000000000D+01  .220700000000D+04  .000000000000D+00
     .340000000000D+01  .000000000000D+00  .372529029846D-08  .970000000000D+02
     .165600000000D+06  .400000000000D+01
4  22  4 26  0  0  0.0 -.172817148268D-03  .329691829393D-11  .000000000000D+00
     .380000000000D+02 -.843750000000D+02  .425839166482D-08 -.107840083652D+01
    -.442750751972D-05  .179881905206D-02  .105854123831D-04  .515363193512D+04
     .172800000000D+06  .279396772385D-07 -.104653983103D+01 -.875443220139D-07
     .961132376781D+00  .176718750000D+03 -.297328827197D+01 -.788461414011D-08
    -.295012288446D-09  .100000000000D+01  .220700000000D+04  .000000000000D+00
     .240000000000D+01  .000000000000D+00 -.419095158577D-08  .550000000000D+03
     .165600000000D+06  .400000000000D+01
21 22  4 26  0  0  0.0  .160725321621D-03  .227373675443D-12  .000000000000D+00
     .220000000000D+02  .562187500000D+02  .470698177897D-08 -.449571397173D+00
     .274367630482D-05  .243491412839D-01  .866875052452D-05  .515376191139D+04
     .172800000000D+06 -.284984707832D-06  .302810099921D+01 -.292435288429D-06
     .960279407766D+00  .218406250000D+03 -.959691302995D+00 -.853106963901D-08
     .511807033103D-09  .100000000000D+01  .220700000000D+04  .000000000000D+00
     .240000000000D+01  .000000000000D+00 -.102445483208D-07  .220000000000D+02
     .165600000000D+06  .400000000000D+01
20 22  4 26  0  0  0.0  .515657011420D-03 -.113686837722D-12  .000000000000D+00
     .130000000000D+02 -.110312500000D+02  .536772358723D-08 -.179107043723D+01
    -.378116965294D-06  .485014880542D-02  .308454036713D-05  .515355934906D+04
     .172800000000D+06  .115483999252D-06 -.228499381523D+01 -.152736902237D-06
     .942600867864D+00  .307500000000D+03 -.312275448193D+01 -.872214902680D-08
     .746459664470D-10  .100000000000D+01  .220700000000D+04  .000000000000D+00
     .240000000000D+01  .000000000000D+00 -.838190317154D-08  .130000000000D+02
     .165600000000D+06  .400000000000D+01
14 22  4 26  0  0  0.0 -.104934442788D-03 -.238742359215D-11  .000000000000D+00
     .780000000000D+02  .825000000000D+01  .500485132929D-08  .220437650483D+01
     .396743416786D-06  .175455980934D-02  .425055623055D-05  .515365166473D+04
     .172800000000D+06 -.745058059692D-08  .105201404269D+01  .223517417908D-07
     .952852858786D+00  .290531250000D+03  .306473357827D+01 -.842606526515D-08
    -.575023952056D-10  .100000000000D+01  .220700000000D+04  .000000000000D+00
     .240000000000D+01  .000000000000D+00 -.745058059692D-08  .780000000000D+02
     .165600000000D+06  .400000000000D+01
29 22  4 26  0  0  0.0 -.507070217282D-03 -.420641299570D-11  .000000000000D+00
     .660000000000D+02  .296875000000D+01  .399695220339D-08 -.465606228654D+00
    -.122934579849D-06  .207568588667D-02  .973604619503D-05  .515371714592D+04
     .172800000000D+06  .279396772385D-07  .213590857840D+01 -.372529029846D-08
     .981049991801D+00  .202125000000D+03  .224368556859D+01 -.778711007868D-08
    -.183936233111D-09  .100000000000D+01  .220700000000D+04  .000000000000D+00
     .240000000000D+01  .000000000000D+00 -.102445483208D-07  .660000000000D+02
     .165600000000D+06  .400000000000D+01
16 22  4 26  0  0  0.0 -.495233573020D-03 -.363797880709D-11  .000000000000D+00
     .570000000000D+02  .562500000000D+01  .460447750926D-08  .326563993193D+00
     .376254320145D-06  .127725143684D-01  .519491732121D-05  .515363212204D+04
     .172800000000D+06 -.335276126862D-07  .110300753555D+01  .260770320892D-06
     .969326217516D+00  .285125000000D+03  .726560440890D+00 -.832998983466D-08
    -.147863301957D-09  .100000000000D+01  .220700000000D+04  .000000000000D+00
     .240000000000D+01  .000000000000D+00 -.102445483208D-07  .570000000000D+02
     .165600000000D+06  .400000000000D+01
